[{"OBJECT_NAME":"STARLINK-3457","OBJECT_ID":"2022-016AS","EPOCH":"2026-03-09T22:23:05.298144","MEAN_MOTION":15.08835783,"ECCENTRICITY":0.00013516,"INCLINATION":53.2177,"RA_OF_ASC_NODE":307.7882,"ARG_OF_PERICENTER":98.3855,"MEAN_ANOMALY":261.7291,"EPHEMERIS_TYPE":0,"CLASSIFICATION_TYPE":"U","NORAD_CAT_ID":51754,"ELEMENT_SET_NO":999,"REV_AT_EPOCH":22374,"BSTAR":-1.4664417e-5,"MEAN_MOTION_DOT":-5.21e-6,"MEAN_MOTION_DDOT":0},{"OBJECT_NAME":"CZ-6A DEB","OBJECT_ID":"2024-126C","EPOCH":"2026-03-09T22:45:09.534528","MEAN_MOTION":15.08339588,"ECCENTRICITY":0.00034995,"INCLINATION":97.8272,"RA_OF_ASC_NODE":88.0703,"ARG_OF_PERICENTER":249.9832,"MEAN_ANOMALY":110.1019,"EPHEMERIS_TYPE":0,"CLASSIFICATION_TYPE":"U","NORAD_CAT_ID":60213,"ELEMENT_SET_NO":999,"REV_AT_EPOCH":9177,"BSTAR":0.0010886629,"MEAN_MOTION_DOT":0.00016868,"MEAN_MOTION_DDOT":0}]
